{"type": "FeatureCollection", "features": [ {"type": "Feature", "properties": {"norad_id": 34963, "name": "COSMOS 2251 DEB", "group": "cosmos-2251-debris", "lat": 53.79908826199979, "lon": 38.128407811271146, "alt_km": 742.4576562153607, "timestamp": "2025-12-27T10:28:59.189736+00:00", "meta": {"OBJECT_NAME": "COSMOS 2251 DEB", "OBJECT_ID": "1993-036AES", "EPOCH": "2025-12-24T11:04:35.037696", "MEAN_MOTION": 14.51189706, "ECCENTRICITY": 0.00420275, "INCLINATION": 74.171, "RA_OF_ASC_NODE": 20.8715, "ARG_OF_PERICENTER": 215.0245, "MEAN_ANOMALY": 144.8152, "EPHEMERIS_TYPE": 0, "CLASSIFICATION_TYPE": "U", "NORAD_CAT_ID": 34963, "ELEMENT_SET_NO": 999, "REV_AT_EPOCH": 86971, "BSTAR": 0.00126389, "MEAN_MOTION_DOT": 5.053e-05, "MEAN_MOTION_DDOT": 0}, "tle": {"line1": "1 34963U 93036AES 25358.46151664  .00005053  00000+0  12639-2 0  9997", "line2": "2 34963  74.1710  20.8715 0042027 215.0245 144.8152 14.51189706869712"}}, "geometry": {"type": "Point", "coordinates": [38.128407811271146, 53.79908826199979]}}, {"type": "Feature", "properties": {"norad_id": 34964, "name": "COSMOS 2251 DEB", "group": "cosmos-2251-debris", "lat": -65.55233514115189, "lon": -76.95674039270263, "alt_km": 951.2121344550487, "timestamp": "2025-12-27T10:28:59.189746+00:00", "meta": {"OBJECT_NAME": "COSMOS 2251 DEB", "OBJECT_ID": "1993-036AET", "EPOCH": "2025-12-18T07:25:04.519776", "MEAN_MOTION": 14.00628567, "ECCENTRICITY": 0.02123167, "INCLINATION": 73.9712, "RA_OF_ASC_NODE": 338.1457, "ARG_OF_PERICENTER": 195.4091, "MEAN_ANOMALY": 164.0515, "EPHEMERIS_TYPE": 0, "CLASSIFICATION_TYPE": "U", "NORAD_CAT_ID": 34964, "ELEMENT_SET_NO": 999, "REV_AT_EPOCH": 84556, "BSTAR": 0.00089791859, "MEAN_MOTION_DOT": 1.6e-05, "MEAN_MOTION_DDOT": 0}, "tle": {"line1": "1 34964U 93036AET 25352.30908009  .00001600  00000+0  89792-3 0  9997", "line2": "2 34964  73.9712 338.1457 0212316 195.4091 164.0515 14.00628567845561"}}, "geometry": {"type": "Point", "coordinates": [-76.95674039270263, -65.55233514115189]}}, {"type": "Feature", "properties": {"norad_id": 34965, "name": "COSMOS 2251 DEB", "group": "cosmos-2251-debris", "lat": 17.66077218977665, "lon": 106.17699590172207, "alt_km": 746.3790658297157, "timestamp": "2025-12-27T10:28:59.189756+00:00", "meta": {"OBJECT_NAME": "COSMOS 2251 DEB", "OBJECT_ID": "1993-036AEU", "EPOCH": "2025-12-27T00:27:15.901920", "MEAN_MOTION": 14.48744245, "ECCENTRICITY": 0.0026338, "INCLINATION": 74.052, "RA_OF_ASC_NODE": 101.7354, "ARG_OF_PERICENTER": 227.1535, "MEAN_ANOMALY": 132.7412, "EPHEMERIS_TYPE": 0, "CLASSIFICATION_TYPE": "U", "NORAD_CAT_ID": 34965, "ELEMENT_SET_NO": 999, "REV_AT_EPOCH": 87320, "BSTAR": 0.00040692, "MEAN_MOTION_DOT": 1.514e-05, "MEAN_MOTION_DDOT": 0}, "tle": {"line1": "1 34965U 93036AEU 25361.01893405  .00001514  00000+0  40692-3 0  9999", "line2": "2 34965  74.0520 101.7354 0026338 227.1535 132.7412 14.48744245873208"}}, "geometry": {"type": "Point", "coordinates": [106.17699590172207, 17.66077218977665]}}, {"type": "Feature", "properties": {"norad_id": 34967, "name": "COSMOS 2251 DEB", "group": "cosmos-2251-debris", "lat": 52.2915981823673, "lon": -111.76021326985833, "alt_km": 719.8377899251836, "timestamp": "2025-12-27T10:28:59.189766+00:00", "meta": {"OBJECT_NAME": "COSMOS 2251 DEB", "OBJECT_ID": "1993-036AEW", "EPOCH": "2025-12-24T22:23:05.722368", "MEAN_MOTION": 14.44316705, "ECCENTRICITY": 0.0038667, "INCLINATION": 73.9924, "RA_OF_ASC_NODE": 231.1127, "ARG_OF_PERICENTER": 14.6551, "MEAN_ANOMALY": 345.5717, "EPHEMERIS_TYPE": 0, "CLASSIFICATION_TYPE": "U", "NORAD_CAT_ID": 34967, "ELEMENT_SET_NO": 999, "REV_AT_EPOCH": 65133, "BSTAR": 0.00061268, "MEAN_MOTION_DOT": 2.1e-05, "MEAN_MOTION_DDOT": 0}, "tle": {"line1": "1 34967U 93036AEW 25358.93270512  .00002100  00000+0  61268-3 0  9990", "line2": "2 34967  73.9924 231.1127 0038667  14.6551 345.5717 14.44316705651339"}}, "geometry": {"type": "Point", "coordinates": [-111.76021326985833, 52.2915981823673]}}, {"type": "Feature", "properties": {"norad_id": 34968, "name": "COSMOS 2251 DEB", "group": "cosmos-2251-debris", "lat": -9.580870216246291, "lon": -143.71672636085538, "alt_km": 638.956850576883, "timestamp": "2025-12-27T10:28:59.189775+00:00", "meta": {"OBJECT_NAME": "COSMOS 2251 DEB", "OBJECT_ID": "1993-036AEX", "EPOCH": "2025-12-26T21:22:00.377760", "MEAN_MOTION": 14.59429118, "ECCENTRICITY": 0.0087295, "INCLINATION": 74.0371, "RA_OF_ASC_NODE": 220.0941, "ARG_OF_PERICENTER": 336.9625, "MEAN_ANOMALY": 22.7634, "EPHEMERIS_TYPE": 0, "CLASSIFICATION_TYPE": "U", "NORAD_CAT_ID": 34968, "ELEMENT_SET_NO": 999, "REV_AT_EPOCH": 88684, "BSTAR": 0.00015768, "MEAN_MOTION_DOT": 7.55e-06, "MEAN_MOTION_DDOT": 0}, "tle": {"line1": "1 34968U 93036AEX 25360.89028215  .00000755  00000+0  15768-3 0  9998", "line2": "2 34968  74.0371 220.0941 0087295 336.9625  22.7634 14.59429118886849"}}, "geometry": {"type": "Point", "coordinates": [-143.71672636085538, -9.580870216246291]}}, {"type": "Feature", "properties": {"norad_id": 34969, "name": "COSMOS 2251 DEB", "group": "cosmos-2251-debris", "lat": 73.1931971518339, "lon": 67.92338608376181, "alt_km": 737.0911654243746, "timestamp": "2025-12-27T10:28:59.189785+00:00", "meta": {"OBJECT_NAME": "COSMOS 2251 DEB", "OBJECT_ID": "1993-036AEY", "EPOCH": "2025-12-26T17:19:34.272480", "MEAN_MOTION": 14.3227655, "ECCENTRICITY": 0.007302, "INCLINATION": 74.0139, "RA_OF_ASC_NODE": 357.5919, "ARG_OF_PERICENTER": 127.2117, "MEAN_ANOMALY": 233.5728, "EPHEMERIS_TYPE": 0, "CLASSIFICATION_TYPE": "U", "NORAD_CAT_ID": 34969, "ELEMENT_SET_NO": 999, "REV_AT_EPOCH": 65337, "BSTAR": 0.00027741107, "MEAN_MOTION_DOT": 7.45e-06, "MEAN_MOTION_DDOT": 0}, "tle": {"line1": "1 34969U 93036AEY 25360.72192445  .00000745  00000+0  27741-3 0  9991", "line2": "2 34969  74.0139 357.5919 0073020 127.2117 233.5728 14.32276550653378"}}, "geometry": {"type": "Point", "coordinates": [67.92338608376181, 73.1931971518339]}}, {"type": "Feature", "properties": {"norad_id": 34971, "name": "COSMOS 2251 DEB", "group": "cosmos-2251-debris", "lat": -32.19652414732744, "lon": 87.4850040897615, "alt_km": 716.6479178802729, "timestamp": "2025-12-27T10:28:59.189796+00:00", "meta": {"OBJECT_NAME": "COSMOS 2251 DEB", "OBJECT_ID": "1993-036AFA", "EPOCH": "2025-12-26T23:41:25.656000", "MEAN_MOTION": 14.55655373, "ECCENTRICITY": 0.0069172, "INCLINATION": 73.9782, "RA_OF_ASC_NODE": 257.9161, "ARG_OF_PERICENTER": 119.8318, "MEAN_ANOMALY": 257.3481, "EPHEMERIS_TYPE": 0, "CLASSIFICATION_TYPE": "U", "NORAD_CAT_ID": 34971, "ELEMENT_SET_NO": 999, "REV_AT_EPOCH": 66380, "BSTAR": 0.00018757, "MEAN_MOTION_DOT": 8.16e-06, "MEAN_MOTION_DDOT": 0}, "tle": {"line1": "1 34971U 93036AFA 25360.98710250  .00000816  00000+0  18757-3 0  9998", "line2": "2 34971  73.9782 257.9161 0069172 119.8318 257.3481 14.55655373663806"}}, "geometry": {"type": "Point", "coordinates": [87.4850040897615, -32.19652414732744]}}, {"type": "Feature", "properties": {"norad_id": 34972, "name": "COSMOS 2251 DEB", "group": "cosmos-2251-debris", "lat": -56.24386517628619, "lon": -4.305755843819614, "alt_km": 670.1597938411041, "timestamp": "2025-12-27T10:28:59.189830+00:00", "meta": {"OBJECT_NAME": "COSMOS 2251 DEB", "OBJECT_ID": "1993-036AFB", "EPOCH": "2025-12-26T12:37:34.370400", "MEAN_MOTION": 14.7310501, "ECCENTRICITY": 0.0032419, "INCLINATION": 73.9877, "RA_OF_ASC_NODE": 22.9204, "ARG_OF_PERICENTER": 179.2872, "MEAN_ANOMALY": 332.9317, "EPHEMERIS_TYPE": 0, "CLASSIFICATION_TYPE": "U", "NORAD_CAT_ID": 34972, "ELEMENT_SET_NO": 999, "REV_AT_EPOCH": 87853, "BSTAR": 0.0013355, "MEAN_MOTION_DOT": 8.649e-05, "MEAN_MOTION_DDOT": 0}, "tle": {"line1": "1 34972U 93036AFB 25360.52609225  .00008649  00000+0  13355-2 0  9998", "line2": "2 34972  73.9877  22.9204 0032419 179.2872 332.9317 14.73105010878533"}}, "geometry": {"type": "Point", "coordinates": [-4.305755843819614, -56.24386517628619]}}, {"type": "Feature", "properties": {"norad_id": 34976, "name": "COSMOS 2251 DEB", "group": "cosmos-2251-debris", "lat": -47.26110446120389, "lon": 115.50431916726183, "alt_km": 646.178637636096, "timestamp": "2025-12-27T10:28:59.189841+00:00", "meta": {"OBJECT_NAME": "COSMOS 2251 DEB", "OBJECT_ID": "1993-036AFF", "EPOCH": "2025-12-26T18:57:11.946240", "MEAN_MOTION": 14.76873799, "ECCENTRICITY": 0.00477313, "INCLINATION": 74.058, "RA_OF_ASC_NODE": 278.7508, "ARG_OF_PERICENTER": 322.3783, "MEAN_ANOMALY": 68.9832, "EPHEMERIS_TYPE": 0, "CLASSIFICATION_TYPE": "U", "NORAD_CAT_ID": 34976, "ELEMENT_SET_NO": 999, "REV_AT_EPOCH": 88481, "BSTAR": 0.0016536947, "MEAN_MOTION_DOT": 0.00011829, "MEAN_MOTION_DDOT": 0}, "tle": {"line1": "1 34976U 93036AFF 25360.78972160  .00011829  00000+0  16537-2 0  9990", "line2": "2 34976  74.0580 278.7508 0047731 322.3783  68.9832 14.76873799884818"}}, "geometry": {"type": "Point", "coordinates": [115.50431916726183, -47.26110446120389]}}, {"type": "Feature", "properties": {"norad_id": 34979, "name": "COSMOS 2251 DEB", "group": "cosmos-2251-debris", "lat": 60.474736838238854, "lon": -91.30185659101681, "alt_km": 636.8804378884715, "timestamp": "2025-12-27T10:28:59.189852+00:00", "meta": {"OBJECT_NAME": "COSMOS 2251 DEB", "OBJECT_ID": "1993-036AFJ", "EPOCH": "2025-12-27T02:04:40.918080", "MEAN_MOTION": 14.79596019, "ECCENTRICITY": 0.0049167, "INCLINATION": 74.0387, "RA_OF_ASC_NODE": 239.0326, "ARG_OF_PERICENTER": 314.0916, "MEAN_ANOMALY": 45.6218, "EPHEMERIS_TYPE": 0, "CLASSIFICATION_TYPE": "U", "NORAD_CAT_ID": 34979, "ELEMENT_SET_NO": 999, "REV_AT_EPOCH": 88432, "BSTAR": 0.0012564, "MEAN_MOTION_DOT": 9.588e-05, "MEAN_MOTION_DDOT": 0}, "tle": {"line1": "1 34979U 93036AFJ 25361.08658470  .00009588  00000+0  12564-2 0  9997", "line2": "2 34979  74.0387 239.0326 0049167 314.0916  45.6218 14.79596019884321"}}, "geometry": {"type": "Point", "coordinates": [-91.30185659101681, 60.474736838238854]}}]}